HORYU-4                 
1 41340U 16012D   20066.92144848  .00000476  00000-0  29272-4 0  9999
2 41340  31.0046 264.7166 0014055 212.1537 147.8242 15.01432346222458
E-ST@R-II               
1 41459U 16025D   20067.55954366  .00002898  00000-0  14918-3 0  9998
2 41459  98.0955 172.3245 0166223 194.1133 165.5417 15.06118822212106
AAUSAT 4                
1 41460U 16025E   20067.51690870  .00002400  00000-0  12124-3 0  9999
2 41460  98.0890 174.2600 0155207 184.2710 175.7211 15.08282968212271
DIWATA-1                
1 41463U 98067HT  20067.24335941  .00157197  22736-4  20400-3 0  9997
2 41463  51.6211 306.4677 0002954 194.4632 266.9853 16.06690941221543
BEESAT-4                
1 41619U 16040W   20066.59556575  .00001191  00000-0  52382-4 0  9999
2 41619  97.3330 128.5091 0011361 173.6535 186.4848 15.23736802193735
CANX-7                  
1 41788U 16059F   20067.18938292  .00005092  00000-0  72551-3 0  9995
2 41788  98.2504 152.5769 0027163 249.0836 110.7231 14.77007507184718
RAVAN                   
1 41849U 16067B   20067.24492600  .00001028  00000-0  91168-4 0  9998
2 41849  97.9247 175.4275 0007702 211.3592 148.7172 14.98466095181312
CELTEE 1                
1 41850U 16067C   20066.54592793 -.00000151  00000-0 -77652-5 0  9997
2 41850  97.9188 172.7430 0007998 226.1664 133.8897 14.97127789181101
OPTICUBE 04             
1 41851U 16067D   20066.79329991 -.00000270  00000-0 -18230-4 0  9991
2 41851  97.9190 172.6665 0007667 226.2937 133.7649 14.96893295181128
AEROCUBE 8D             
1 41852U 16067E   20067.20874575 -.00000198  00000-0 -11963-4 0  9997
2 41852  97.9189 172.9176 0008783 226.4418 133.6074 14.96849861181168
AEROCUBE 8C             
1 41853U 16067F   20066.76998541  .00000749  00000-0  70677-4 0  9995
2 41853  97.9190 172.3868 0008929 226.7259 133.3218 14.96815458181095
PROMETHEUS 2-1          
1 41854U 16067G   20066.55995889  .00000526  00000-0  50852-4 0  9991
2 41854  97.9193 172.4403 0009502 227.3949 132.6471 14.97099972181073
PROMETHEUS 2-3          
1 41855U 16067H   20066.76159149  .00000582  00000-0  55718-4 0  9994
2 41855  97.9196 172.6721 0009663 226.9269 133.1144 14.97109877181103
INS-1B                  
1 41954U 17008G   20066.83157414  .00001143  00000-0  49327-4 0  9994
2 41954  97.3666 133.0226 0007662 309.2966  50.7592 15.24523135169730
BGUSAT                  
1 41999U 17008BD  20066.67601127  .00001861  00000-0  72812-4 0  9992
2 41999  97.3767 136.4610 0006715 322.8780  37.1994 15.27070473169266
DIDO-2                  
1 42000U 17008BE  20066.71115406  .00000719  00000-0  32294-4 0  9992
2 42000  97.3675 133.4400 0007513 332.4090  27.6748 15.24306588169111
PEASSS                  
1 42015U 17008BV  20066.69758445  .00000957  00000-0  40755-4 0  9996
2 42015  97.3695 134.8270 0005508 341.0482  19.0550 15.25383884169685
AL-FARABI 1             
1 42016U 17008BW  20067.49445668  .00001289  00000-0  52685-4 0  9990
2 42016  97.3718 136.4957 0005243 336.9032  23.1970 15.26161670169974
NAYIF-1 (EO-88)         
1 42017U 17008BX  20066.62348783  .00001256  00000-0  51337-4 0  9992
2 42017  97.3715 135.6481 0005335 340.2561  19.8470 15.26197148169866
NSIGHT                  
1 42726U 98067MF  20067.27657838  .00101783  15095-4  29854-3 0  9997
2 42726  51.6288  30.6869 0005394 110.8599 249.2985 15.92630298159301
UCLSAT                  
1 42765U 17036A   20066.88677744  .00001140  00000-0  50931-4 0  9994
2 42765  97.3152 123.8194 0012168  35.1314 325.0724 15.23288509150963
LITUANICASAT-2          
1 42768U 17036D   20066.63260854  .00001747  00000-0  75555-4 0  9992
2 42768  97.3204 123.3994 0015233  25.0085 335.1887 15.23672613150185
AALTO-1                 
1 42775U 17036L   20067.40055590  .00000671  00000-0  32579-4 0  9999
2 42775  97.3131 122.4176 0014449  25.0032 335.1901 15.21688902150154
URSA MAIOR              
1 42776U 17036M   20066.41532017  .00000706  00000-0  34008-4 0  9992
2 42776  97.3145 121.7017 0014355  28.1720 332.0290 15.21853426150017
COMPASS 2               
1 42777U 17036N   20067.10725262  .00001485  00000-0  64825-4 0  9991
2 42777  97.3195 124.3123 0012853  25.5939 334.5932 15.23605704150212
DIAMOND RED             
1 42783U 17036U   20066.63899430  .00000845  00000-0  39217-4 0  9990
2 42783  97.3155 122.9482 0012912  37.1867 323.0261 15.22639505150103
PEGASUS                 
1 42784U 17036V   20066.89156213  .00001029  00000-0  46632-4 0  9998
2 42784  97.3158 123.5534 0012746  35.5612 324.6472 15.22993163150167
DIAMOND GREEN           
1 42785U 17036W   20066.57205257  .00000735  00000-0  34468-4 0  9994
2 42785  97.3157 122.9152 0012824  38.0618 322.1523 15.22640186150161
DIAMOND BLUE            
1 42786U 17036X   20067.09702780  .00000893  00000-0  41288-4 0  9999
2 42786  97.3155 123.4225 0012645  36.6828 323.5272 15.22640514150166
NUDTSAT                 
1 42787U 17036Y   20066.96737450  .00001504  00000-0  64516-4 0  9996
2 42787  97.3208 124.7968 0013038  27.6295 332.5632 15.24195792150085
SUCHAI                  
1 42788U 17036Z   20067.14846401  .00001234  00000-0  54533-4 0  9993
2 42788  97.3164 124.3012 0012231  33.5935 326.6076 15.23501119150308
SKCUBE                  
1 42789U 17036AA  20066.79041107  .00001075  00000-0  48094-4 0  9992
2 42789  97.3160 123.8344 0012157  35.1742 325.0295 15.23360070150167
VZLUSAT-1               
1 42790U 17036AB  20066.69304384  .00001459  00000-0  62719-4 0  9998
2 42790  97.3181 124.5249 0011602  34.2080 325.9903 15.24183534150190
ROBUSTA-1B              
1 42792U 17036AD  20066.88810563  .00001171  00000-0  51824-4 0  9998
2 42792  97.3161 124.1497 0011731  35.5771 324.6246 15.23545223150209
CICERO 6                
1 42793U 17036AE  20066.83362111  .00000776  00000-0  35922-4 0  9996
2 42793  97.3141 123.6290 0011130  38.3535 321.8491 15.22967012150243
D-SAT                   
1 42794U 17036AF  20066.78022053  .00000323  00000-0  33449-4 0  9999
2 42794  97.5071 104.4475 0125879 348.3907  11.4414 14.91229977147398
CORVUS BC2              
1 42846U 17042X   20067.43973642  .00000265  00000-0  31323-4 0  9990
2 42846  97.5377 315.5094 0008090 257.1442 102.8874 14.92067979144196
CORVUS BC1              
1 42847U 17042Y   20067.37527761  .00000245  00000-0  29322-4 0  9995
2 42847  97.5379 315.5989 0007736 256.4657 103.5701 14.92168947144181
MIRATA                  
1 43015U 17073C   20066.87911915  .00001438  00000-0  11600-3 0  9993
2 43015  97.7222 342.9853 0254653  23.4421 337.8160 14.79452892124050
MAKERSAT 0              
1 43016U 17073D   20067.21794163  .00000965  00000-0  79675-4 0  9998
2 43016  97.7258 343.5070 0257147  23.1636 338.0924 14.79074641124080
ASTERIA                 
1 43020U 98067NH  20067.29561978  .00096944  14666-4  30061-3 0  9993
2 43020  51.6418  43.2918 0002375  91.6493 268.4786 15.91615298131320
DELLINGR (RBLE)         
1 43021U 98067NJ  20067.29948800  .00010981  00000-0  10204-3 0  9994
2 43021  51.6361  80.8851 0002661  39.0057 321.1131 15.68006115130822
AEROCUBE 7B (OCSD B)    
1 43042U 17071F   20066.79359842  .00003814  00000-0  94846-4 0  9991
2 43042  51.6364 210.0384 0004679  36.4259 323.7044 15.42850336126529
AEROCUBE 7C (OCSD C)    
1 43043U 17071G   20067.11919211  .00003934  00000-0  97604-4 0  9999
2 43043  51.6365 208.4772 0004945  41.2094 318.9264 15.42830812126549
CHEFSAT                 
1 43044U 17071H   20067.53018849  .00005218  00000-0  11054-3 0  9994
2 43044  51.6375 194.9475 0004544  43.6980 316.4367 15.46860356126766
ASGARDIA 1              
1 43049U 17071N   20067.11670937  .00003754  00000-0  93309-4 0  9992
2 43049  51.6376 207.7710 0002708  59.4893 300.6360 15.42913543126542
ISARA                   
1 43050U 17071P   20066.54823026  .00005837  00000-0  12595-3 0  9990
2 43050  51.6357 201.7961 0002419  55.7229 304.3987 15.46067174126580
PROPCUBE 2 (FAUNA)      
1 43052U 17071R   20067.45490407  .00003789  00000-0  92872-4 0  9997
2 43052  51.6373 204.7982 0002625  57.4611 302.6628 15.43309371126611
CORVUS BC3              
1 43118U 18004H   20067.21416606  .00000672  00000-0  31401-4 0  9999
2 43118  97.4546 138.2783 0011681  57.0179 303.2178 15.23207264119436
MICROMAS-2A             
1 43131U 18004W   20066.70437629  .00001618  00000-0  67829-4 0  9999
2 43131  97.4586 139.1585 0010523  59.1005 301.1266 15.24922595119437
SPACEBEE-4              
1 43139U 18004AE  20066.42654400  .00002170  00000-0  87018-4 0  9990
2 43139  97.4619 139.8287 0009854  62.2683 297.9553 15.26060095119442
SPACEBEE-3              
1 43140U 18004AF  20066.75506041  .00002768  00000-0  10773-3 0  9991
2 43140  97.4631 140.6914 0009492  60.7813 299.4374 15.26833579119523
SPACEBEE-2              
1 43141U 18004AG  20066.68828614  .00002946  00000-0  11356-3 0  9993
2 43141  97.4642 140.8213 0009445  60.6637 299.5544 15.27098395119521
SPACEBEE-1              
1 43142U 18004AH  20067.20231012  .00003536  00000-0  13449-3 0  9994
2 43142  97.4644 141.5397 0009375  58.9298 301.2860 15.27404543119607
CICERO 7                
1 43143U 18004AJ  20066.70942716  .00001470  00000-0  61807-4 0  9996
2 43143  97.4568 139.3637 0008886  68.1254 292.0927 15.24997639119450
GOMX-4B                 
1 43196U 18015E   20067.46295175  .00000587  00000-0  26948-4 0  9995
2 43196  97.4208 196.8920 0020492 102.4168 257.9345 15.24165855116363
GOMX-4A                 
1 43197U 18015F   20067.37094052  .00000480  00000-0  22440-4 0  9992
2 43197  97.4193 196.8594 0020922 103.6954 331.5031 15.24354963116369
1KUNS-PF                
1 43466U 98067NP  20067.27369845  .00054415  00000-0  25861-3 0  9996
2 43466  51.6303  69.2319 0003368  65.8582 294.2772 15.82353038104238
UBAKUSAT                
1 43467U 98067NQ  20067.44765805  .00018387  00000-0  15174-3 0  9996
2 43467  51.6339  84.7964 0002533  24.9486 335.1634 15.70389726104050
